{"type": "FeatureCollection", "features": [ {"type": "Feature", "properties": {"norad_id": 40118, "name": "GAOFEN-2", "group": "resource", "lat": 79.13835876513454, "lon": -74.60010336836646, "alt_km": 614.1428374638008, "timestamp": "2025-12-24T18:55:55.714271+00:00", "meta": {"OBJECT_NAME": "GAOFEN-2", "OBJECT_ID": "2014-049A", "EPOCH": "2025-12-24T07:08:29.114016", "MEAN_MOTION": 14.80627049, "ECCENTRICITY": 0.00087605, "INCLINATION": 98.0367, "RA_OF_ASC_NODE": 57.4857, "ARG_OF_PERICENTER": 81.0885, "MEAN_ANOMALY": 279.1318, "EPHEMERIS_TYPE": 0, "CLASSIFICATION_TYPE": "U", "NORAD_CAT_ID": 40118, "ELEMENT_SET_NO": 999, "REV_AT_EPOCH": 61335, "BSTAR": 7.7529351e-05, "MEAN_MOTION_DOT": 5.42e-06, "MEAN_MOTION_DDOT": 0}, "tle": {"line1": "1 40118U 14049A   25358.29755919  .00000542  00000+0  77529-4 0  9996", "line2": "2 40118  98.0367  57.4857 0008760  81.0885 279.1318 14.80627049613356"}}, "geometry": {"type": "Point", "coordinates": [-74.60010336836646, 79.13835876513454]}}, {"type": "Feature", "properties": {"norad_id": 40143, "name": "YAOGAN-21", "group": "resource", "lat": 51.84714868693381, "lon": -129.1967072000243, "alt_km": 493.0634559398095, "timestamp": "2025-12-24T18:55:55.714281+00:00", "meta": {"OBJECT_NAME": "YAOGAN-21", "OBJECT_ID": "2014-053A", "EPOCH": "2025-12-24T07:20:33.362880", "MEAN_MOTION": 15.23785967, "ECCENTRICITY": 0.00085828, "INCLINATION": 97.1738, "RA_OF_ASC_NODE": 41.1154, "ARG_OF_PERICENTER": 3.9736, "MEAN_ANOMALY": 356.1568, "EPHEMERIS_TYPE": 0, "CLASSIFICATION_TYPE": "U", "NORAD_CAT_ID": 40143, "ELEMENT_SET_NO": 999, "REV_AT_EPOCH": 62830, "BSTAR": 0.00016525838, "MEAN_MOTION_DOT": 3.913e-05, "MEAN_MOTION_DDOT": 0}, "tle": {"line1": "1 40143U 14053A   25358.30594170  .00003913  00000+0  16526-3 0  9995", "line2": "2 40143  97.1738  41.1154 0008582   3.9736 356.1568 15.23785967628302"}}, "geometry": {"type": "Point", "coordinates": [-129.1967072000243, 51.84714868693381]}}, {"type": "Feature", "properties": {"norad_id": 40275, "name": "YAOGAN-22", "group": "resource", "lat": -52.396077487571176, "lon": 156.64741965724807, "alt_km": 1208.4238767392735, "timestamp": "2025-12-24T18:55:55.714292+00:00", "meta": {"OBJECT_NAME": "YAOGAN-22", "OBJECT_ID": "2014-063A", "EPOCH": "2025-12-24T06:25:41.917728", "MEAN_MOTION": 13.15523079, "ECCENTRICITY": 0.00060782, "INCLINATION": 100.7429, "RA_OF_ASC_NODE": 141.8504, "ARG_OF_PERICENTER": 220.6211, "MEAN_ANOMALY": 139.4448, "EPHEMERIS_TYPE": 0, "CLASSIFICATION_TYPE": "U", "NORAD_CAT_ID": 40275, "ELEMENT_SET_NO": 999, "REV_AT_EPOCH": 53681, "BSTAR": 6.9396244e-05, "MEAN_MOTION_DOT": -2e-07, "MEAN_MOTION_DDOT": 0}, "tle": {"line1": "1 40275U 14063A   25358.26784627 -.00000020  00000+0  69396-4 0  9996", "line2": "2 40275 100.7429 141.8504 0006078 220.6211 139.4448 13.15523079536813"}}, "geometry": {"type": "Point", "coordinates": [156.64741965724807, -52.396077487571176]}}, {"type": "Feature", "properties": {"norad_id": 40298, "name": "ASNARO", "group": "resource", "lat": -3.1271227165668973, "lon": 74.84608941842754, "alt_km": 510.3222516746, "timestamp": "2025-12-24T18:55:55.714302+00:00", "meta": {"OBJECT_NAME": "ASNARO", "OBJECT_ID": "2014-070A", "EPOCH": "2025-12-24T06:18:14.840064", "MEAN_MOTION": 15.19728029, "ECCENTRICITY": 0.00058618, "INCLINATION": 97.3639, "RA_OF_ASC_NODE": 73.9279, "ARG_OF_PERICENTER": 91.9125, "MEAN_ANOMALY": 268.2782, "EPHEMERIS_TYPE": 0, "CLASSIFICATION_TYPE": "U", "NORAD_CAT_ID": 40298, "ELEMENT_SET_NO": 999, "REV_AT_EPOCH": 61744, "BSTAR": 0.00067342421, "MEAN_MOTION_DOT": 0.00014346, "MEAN_MOTION_DDOT": 0}, "tle": {"line1": "1 40298U 14070A   25358.26267176  .00014346  00000+0  67342-3 0  9997", "line2": "2 40298  97.3639  73.9279 0005861  91.9125 268.2782 15.19728029617447"}}, "geometry": {"type": "Point", "coordinates": [74.84608941842754, -3.1271227165668973]}}, {"type": "Feature", "properties": {"norad_id": 40310, "name": "YAOGAN-24", "group": "resource", "lat": -67.85848840074603, "lon": -70.60294826745165, "alt_km": 657.5526615215958, "timestamp": "2025-12-24T18:55:55.714312+00:00", "meta": {"OBJECT_NAME": "YAOGAN-24", "OBJECT_ID": "2014-072A", "EPOCH": "2025-12-24T08:02:48.230880", "MEAN_MOTION": 14.76199705, "ECCENTRICITY": 0.00151853, "INCLINATION": 98.1233, "RA_OF_ASC_NODE": 129.491, "ARG_OF_PERICENTER": 103.5558, "MEAN_ANOMALY": 256.7344, "EPHEMERIS_TYPE": 0, "CLASSIFICATION_TYPE": "U", "NORAD_CAT_ID": 40310, "ELEMENT_SET_NO": 999, "REV_AT_EPOCH": 59792, "BSTAR": 0.00016658024, "MEAN_MOTION_DOT": 1.101e-05, "MEAN_MOTION_DDOT": 0}, "tle": {"line1": "1 40310U 14072A   25358.33528045  .00001101  00000+0  16658-3 0  9996", "line2": "2 40310  98.1233 129.4910 0015185 103.5558 256.7344 14.76199705597921"}}, "geometry": {"type": "Point", "coordinates": [-70.60294826745165, -67.85848840074603]}}, {"type": "Feature", "properties": {"norad_id": 40336, "name": "CBERS 4", "group": "resource", "lat": 27.797371296791464, "lon": 51.96321740284687, "alt_km": 771.6750597513674, "timestamp": "2025-12-24T18:55:55.714321+00:00", "meta": {"OBJECT_NAME": "CBERS 4", "OBJECT_ID": "2014-079A", "EPOCH": "2025-12-24T07:05:30.259104", "MEAN_MOTION": 14.35521778, "ECCENTRICITY": 0.0001868, "INCLINATION": 98.3291, "RA_OF_ASC_NODE": 55.9163, "ARG_OF_PERICENTER": 100.1161, "MEAN_ANOMALY": 260.0236, "EPHEMERIS_TYPE": 0, "CLASSIFICATION_TYPE": "U", "NORAD_CAT_ID": 40336, "ELEMENT_SET_NO": 999, "REV_AT_EPOCH": 57886, "BSTAR": 4.4829171e-05, "MEAN_MOTION_DOT": 8.7e-07, "MEAN_MOTION_DDOT": 0}, "tle": {"line1": "1 40336U 14079A   25358.29548911  .00000087  00000+0  44829-4 0  9994", "line2": "2 40336  98.3291  55.9163 0001868 100.1161 260.0236 14.35521778578868"}}, "geometry": {"type": "Point", "coordinates": [51.96321740284687, 27.797371296791464]}}, {"type": "Feature", "properties": {"norad_id": 40362, "name": "YAOGAN-26", "group": "resource", "lat": 14.657480642140907, "lon": -179.1052901025498, "alt_km": 451.1002426916102, "timestamp": "2025-12-24T18:55:55.714332+00:00", "meta": {"OBJECT_NAME": "YAOGAN-26", "OBJECT_ID": "2014-088A", "EPOCH": "2025-12-24T07:17:56.437152", "MEAN_MOTION": 15.39697767, "ECCENTRICITY": 0.00046259, "INCLINATION": 97.0642, "RA_OF_ASC_NODE": 358.5682, "ARG_OF_PERICENTER": 354.3838, "MEAN_ANOMALY": 5.7356, "EPHEMERIS_TYPE": 0, "CLASSIFICATION_TYPE": "U", "NORAD_CAT_ID": 40362, "ELEMENT_SET_NO": 999, "REV_AT_EPOCH": 61072, "BSTAR": 0.0005525132, "MEAN_MOTION_DOT": 0.00021789, "MEAN_MOTION_DDOT": 0}, "tle": {"line1": "1 40362U 14088A   25358.30412543  .00021789  00000+0  55251-3 0  9998", "line2": "2 40362  97.0642 358.5682 0004625 354.3838   5.7356 15.39697767610725"}}, "geometry": {"type": "Point", "coordinates": [-179.1052901025498, 14.657480642140907]}}, {"type": "Feature", "properties": {"norad_id": 40376, "name": "SMAP", "group": "resource", "lat": -3.6196503534946194, "lon": 3.8571189928893177, "alt_km": 685.860287639799, "timestamp": "2025-12-24T18:55:55.714342+00:00", "meta": {"OBJECT_NAME": "SMAP", "OBJECT_ID": "2015-003A", "EPOCH": "2025-12-24T05:49:13.738368", "MEAN_MOTION": 14.63358751, "ECCENTRICITY": 0.00012317, "INCLINATION": 98.129, "RA_OF_ASC_NODE": 2.8006, "ARG_OF_PERICENTER": 92.2001, "MEAN_ANOMALY": 267.9342, "EPHEMERIS_TYPE": 0, "CLASSIFICATION_TYPE": "U", "NORAD_CAT_ID": 40376, "ELEMENT_SET_NO": 999, "REV_AT_EPOCH": 58203, "BSTAR": 0.00011155498, "MEAN_MOTION_DOT": 5.29e-06, "MEAN_MOTION_DDOT": 0}, "tle": {"line1": "1 40376U 15003A   25358.24252012  .00000529  00000+0  11155-3 0  9991", "line2": "2 40376  98.1290   2.8006 0001231  92.2001 267.9342 14.63358751582032"}}, "geometry": {"type": "Point", "coordinates": [3.8571189928893177, -3.6196503534946194]}}, {"type": "Feature", "properties": {"norad_id": 40536, "name": "KOMPSAT-3A", "group": "resource", "lat": -51.667070790095224, "lon": -16.367969288946902, "alt_km": 443.58787483840297, "timestamp": "2025-12-24T18:55:55.714353+00:00", "meta": {"OBJECT_NAME": "KOMPSAT-3A", "OBJECT_ID": "2015-014A", "EPOCH": "2025-12-24T06:43:05.477664", "MEAN_MOTION": 15.4435884, "ECCENTRICITY": 0.00056026, "INCLINATION": 97.6805, "RA_OF_ASC_NODE": 333.2671, "ARG_OF_PERICENTER": 102.2339, "MEAN_ANOMALY": 257.9537, "EPHEMERIS_TYPE": 0, "CLASSIFICATION_TYPE": "U", "NORAD_CAT_ID": 40536, "ELEMENT_SET_NO": 999, "REV_AT_EPOCH": 59473, "BSTAR": 0.00047583724, "MEAN_MOTION_DOT": 0.00021903, "MEAN_MOTION_DDOT": 0}, "tle": {"line1": "1 40536U 15014A   25358.27992451  .00021903  00000+0  47584-3 0  9996", "line2": "2 40536  97.6805 333.2671 0005602 102.2339 257.9537 15.44358840594731"}}, "geometry": {"type": "Point", "coordinates": [-16.367969288946902, -51.667070790095224]}}, {"type": "Feature", "properties": {"norad_id": 40697, "name": "SENTINEL-2A", "group": "resource", "lat": -73.36368302856239, "lon": -139.16943456944924, "alt_km": 797.0609159750866, "timestamp": "2025-12-24T18:55:55.714363+00:00", "meta": {"OBJECT_NAME": "SENTINEL-2A", "OBJECT_ID": "2015-028A", "EPOCH": "2025-12-24T07:40:15.197376", "MEAN_MOTION": 14.3081028, "ECCENTRICITY": 0.00010716, "INCLINATION": 98.5732, "RA_OF_ASC_NODE": 70.6901, "ARG_OF_PERICENTER": 89.6301, "MEAN_ANOMALY": 270.5004, "EPHEMERIS_TYPE": 0, "CLASSIFICATION_TYPE": "U", "NORAD_CAT_ID": 40697, "ELEMENT_SET_NO": 999, "REV_AT_EPOCH": 54872, "BSTAR": 0.0001104215, "MEAN_MOTION_DOT": 2.46e-06, "MEAN_MOTION_DDOT": 0}, "tle": {"line1": "1 40697U 15028A   25358.31962034  .00000246  00000+0  11042-3 0  9995", "line2": "2 40697  98.5732  70.6901 0001071  89.6301 270.5004 14.30810280548722"}}, "geometry": {"type": "Point", "coordinates": [-139.16943456944924, -73.36368302856239]}}]}